[{"OBJECT_NAME":"STARLINK-32018","OBJECT_ID":"2024-117Q","EPOCH":"2026-03-09T06:49:41.991456","MEAN_MOTION":15.30193059,"ECCENTRICITY":0.00011978,"INCLINATION":53.1618,"RA_OF_ASC_NODE":39.0622,"ARG_OF_PERICENTER":97.0561,"MEAN_ANOMALY":263.0576,"EPHEMERIS_TYPE":0,"CLASSIFICATION_TYPE":"U","NORAD_CAT_ID":60105,"ELEMENT_SET_NO":999,"REV_AT_EPOCH":9682,"BSTAR":3.464082e-6,"MEAN_MOTION_DOT":-2.57e-6,"MEAN_MOTION_DDOT":0},{"OBJECT_NAME":"ELECTRON KICK STAGE R\/B","OBJECT_ID":"2022-147B","EPOCH":"2026-03-09T22:28:20.187264","MEAN_MOTION":15.28920172,"ECCENTRICITY":0.00095089,"INCLINATION":97.642,"RA_OF_ASC_NODE":85.1135,"ARG_OF_PERICENTER":110.4683,"MEAN_ANOMALY":249.7578,"EPHEMERIS_TYPE":0,"CLASSIFICATION_TYPE":"U","NORAD_CAT_ID":54228,"ELEMENT_SET_NO":999,"REV_AT_EPOCH":18390,"BSTAR":0.00083201931,"MEAN_MOTION_DOT":0.00023374,"MEAN_MOTION_DDOT":0}]
